start=new Date('2021-09-12T00:00:00.000Z').valueOf();
sats=[{"ECCENTRICITY":"0.00021830","TLE_LINE1":"1 46768U 20074AF  21254.70983933 -.00000249  00000-0  22170-5 0  9993","SEMIMAJOR_AXIS":"6925.362","FILE":"3113379","MEAN_MOTION_DOT":"-0.00000249","OBJECT_ID":"2020-074AF","LAUNCH_DATE":"2020-10-24","MEAN_ELEMENT_THEORY":"SGP4","OBJECT_TYPE":"PAYLOAD","PERIAPSIS":"545.716","TLE_LINE2":"2 46768  53.0552 138.7697 0002183  74.8729 285.2501 15.06395477 49288","RCS_SIZE":"LARGE","RA_OF_ASC_NODE":"138.7697","EPHEMERIS_TYPE":"0","INCLINATION":"53.0552","BSTAR":"0.00000221700000","COUNTRY_CODE":"US","DECAY_DATE":null,"CLASSIFICATION_TYPE":"U","PERIOD":"95.592","ELEMENT_SET_NO":"999","ARG_OF_PERICENTER":"74.8729","OBJECT_NAME":"STARLINK-1918","REV_AT_EPOCH":"4928","GP_ID":"184535281","MEAN_MOTION_DDOT":"0.0000000000000","TIME_SYSTEM":"UTC","MEAN_ANOMALY":"285.2501","MEAN_MOTION":"15.06395477","EPOCH":"2021-09-11T17:02:10.118112","NORAD_CAT_ID":"46768","APOAPSIS":"548.739","SITE":"AFETR","REF_FRAME":"TEME","CENTER_NAME":"EARTH"},{"DECAY_DATE":null,"COUNTRY_CODE":"US","EPHEMERIS_TYPE":"0","INCLINATION":"53.0547","BSTAR":"0.00005142600000","RA_OF_ASC_NODE":"141.0887","RCS_SIZE":"LARGE","TLE_LINE2":"2 46769  53.0547 141.0887 0001940  69.0546 291.0650 15.06396391 49202","PERIAPSIS":"545.881","OBJECT_TYPE":"PAYLOAD","MEAN_ELEMENT_THEORY":"SGP4","LAUNCH_DATE":"2020-10-24","OBJECT_ID":"2020-074AG","MEAN_MOTION_DOT":"0.00000484","FILE":"3113181","SEMIMAJOR_AXIS":"6925.360","TLE_LINE1":"1 46769U 20074AG  21254.19749758  .00000484  00000-0  51426-4 0  9997","ECCENTRICITY":"0.00019400","CENTER_NAME":"EARTH","REF_FRAME":"TEME","SITE":"AFETR","APOAPSIS":"548.568","EPOCH":"2021-09-11T04:44:23.790912","MEAN_MOTION":"15.06396391","NORAD_CAT_ID":"46769","GP_ID":"184507920","MEAN_MOTION_DDOT":"0.0000000000000","TIME_SYSTEM":"UTC","MEAN_ANOMALY":"291.0650","REV_AT_EPOCH":"4920","ARG_OF_PERICENTER":"69.0546","OBJECT_NAME":"STARLINK-1919","ELEMENT_SET_NO":"999","CLASSIFICATION_TYPE":"U","PERIOD":"95.592"},{"TLE_LINE2":"2 46770  53.0542 141.0641 0002030  71.2865 288.8344 15.06401280 49205","PERIAPSIS":"545.804","OBJECT_TYPE":"PAYLOAD","MEAN_ELEMENT_THEORY":"SGP4","DECAY_DATE":null,"COUNTRY_CODE":"US","BSTAR":"-0.00001317500000","INCLINATION":"53.0542","EPHEMERIS_TYPE":"0","RA_OF_ASC_NODE":"141.0641","RCS_SIZE":"LARGE","FILE":"3113181","ECCENTRICITY":"0.00020300","TLE_LINE1":"1 46770U 20074AH  21254.20023229 -.00000478  00000-0 -13175-4 0  9993","SEMIMAJOR_AXIS":"6925.345","OBJECT_ID":"2020-074AH","LAUNCH_DATE":"2020-10-24","MEAN_MOTION_DOT":"-0.00000478","REF_FRAME":"TEME","APOAPSIS":"548.615","SITE":"AFETR","NORAD_CAT_ID":"46770","MEAN_MOTION":"15.06401280","EPOCH":"2021-09-11T04:48:20.069856","CENTER_NAME":"EARTH","ELEMENT_SET_NO":"999","PERIOD":"95.592","CLASSIFICATION_TYPE":"U","MEAN_ANOMALY":"288.8344","TIME_SYSTEM":"UTC","GP_ID":"184507174","MEAN_MOTION_DDOT":"0.0000000000000","REV_AT_EPOCH":"4920","OBJECT_NAME":"STARLINK-1932","ARG_OF_PERICENTER":"71.2865"},{"REV_AT_EPOCH":"4928","OBJECT_NAME":"STARLINK-1936","ARG_OF_PERICENTER":"72.4251","MEAN_ANOMALY":"287.6973","GP_ID":"184535031","MEAN_MOTION_DDOT":"0.0000000000000","TIME_SYSTEM":"UTC","PERIOD":"95.593","CLASSIFICATION_TYPE":"U","ELEMENT_SET_NO":"999","CENTER_NAME":"EARTH","APOAPSIS":"548.740","SITE":"AFETR","NORAD_CAT_ID":"46772","EPOCH":"2021-09-11T17:12:47.524608","MEAN_MOTION":"15.06389085","REF_FRAME":"TEME","OBJECT_ID":"2020-074AK","LAUNCH_DATE":"2020-10-24","MEAN_MOTION_DOT":"-0.00000894","FILE":"3113379","ECCENTRICITY":"0.00021560","TLE_LINE1":"1 46772U 20074AK  21254.71721672 -.00000894  00000-0 -41102-4 0  9991","SEMIMAJOR_AXIS":"6925.382","RA_OF_ASC_NODE":"138.7512","RCS_SIZE":"LARGE","COUNTRY_CODE":"US","DECAY_DATE":null,"BSTAR":"-0.00004110200000","INCLINATION":"53.0541","EPHEMERIS_TYPE":"0","OBJECT_TYPE":"PAYLOAD","MEAN_ELEMENT_THEORY":"SGP4","TLE_LINE2":"2 46772  53.0541 138.7512 0002156  72.4251 287.6973 15.06389085 49288","PERIAPSIS":"545.754"},{"REV_AT_EPOCH":"4922","ARG_OF_PERICENTER":"76.6443","OBJECT_NAME":"STARLINK-1939","GP_ID":"184508173","TIME_SYSTEM":"UTC","MEAN_MOTION_DDOT":"0.0000000000000","MEAN_ANOMALY":"283.4766","CLASSIFICATION_TYPE":"U","PERIOD":"95.522","ELEMENT_SET_NO":"999","CENTER_NAME":"EARTH","SITE":"AFETR","APOAPSIS":"545.166","MEAN_MOTION":"15.07513100","EPOCH":"2021-09-11T05:02:48.294816","NORAD_CAT_ID":"46774","REF_FRAME":"TEME","OBJECT_ID":"2020-074AM","LAUNCH_DATE":"2020-10-24","MEAN_MOTION_DOT":"0.00005979","FILE":"3113181","TLE_LINE1":"1 46774U 20074AM  21254.21028119  .00005979  00000-0  40769-3 0  9998","SEMIMAJOR_AXIS":"6921.939","ECCENTRICITY":"0.00019670","RA_OF_ASC_NODE":"140.3405","RCS_SIZE":"LARGE","COUNTRY_CODE":"US","DECAY_DATE":null,"EPHEMERIS_TYPE":"0","INCLINATION":"53.0529","BSTAR":"0.00040769000000","OBJECT_TYPE":"PAYLOAD","MEAN_ELEMENT_THEORY":"SGP4","PERIAPSIS":"542.443","TLE_LINE2":"2 46774  53.0529 140.3405 0001967  76.6443 283.4766 15.07513100 49220"},{"TLE_LINE1":"1 46775U 20074AN  21254.15694563  .00001221  00000-0  10087-3 0  9990","ECCENTRICITY":"0.00019340","SEMIMAJOR_AXIS":"6925.327","FILE":"3113181","MEAN_MOTION_DOT":"0.00001221","LAUNCH_DATE":"2020-10-24","OBJECT_ID":"2020-074AN","TLE_LINE2":"2 46775  53.0550 141.2575 0001934  65.9124 294.2067 15.06407078 49199","PERIAPSIS":"545.853","MEAN_ELEMENT_THEORY":"SGP4","OBJECT_TYPE":"PAYLOAD","EPHEMERIS_TYPE":"0","INCLINATION":"53.0550","BSTAR":"0.00010087000000","COUNTRY_CODE":"US","DECAY_DATE":null,"RCS_SIZE":"LARGE","RA_OF_ASC_NODE":"141.2575","ELEMENT_SET_NO":"999","CLASSIFICATION_TYPE":"U","PERIOD":"95.592","TIME_SYSTEM":"UTC","GP_ID":"184508421","MEAN_MOTION_DDOT":"0.0000000000000","MEAN_ANOMALY":"294.2067","ARG_OF_PERICENTER":"65.9124","OBJECT_NAME":"STARLINK-1945","REV_AT_EPOCH":"4919","REF_FRAME":"TEME","EPOCH":"2021-09-11T03:46:00.102432","MEAN_MOTION":"15.06407078","NORAD_CAT_ID":"46775","APOAPSIS":"548.531","SITE":"AFETR","CENTER_NAME":"EARTH"},{"CENTER_NAME":"EARTH","EPOCH":"2021-09-11T17:34:01.760448","MEAN_MOTION":"15.06389125","NORAD_CAT_ID":"46776","SITE":"AFETR","APOAPSIS":"548.639","REF_FRAME":"TEME","ARG_OF_PERICENTER":"73.5348","OBJECT_NAME":"STARLINK-1946","REV_AT_EPOCH":"4928","TIME_SYSTEM":"UTC","GP_ID":"184534280","MEAN_MOTION_DDOT":"0.0000000000000","MEAN_ANOMALY":"286.5861","CLASSIFICATION_TYPE":"U","PERIOD":"95.593","ELEMENT_SET_NO":"999","RCS_SIZE":"LARGE","RA_OF_ASC_NODE":"138.6756","EPHEMERIS_TYPE":"0","INCLINATION":"53.0539","BSTAR":"-0.00002160700000","DECAY_DATE":null,"COUNTRY_CODE":"US","MEAN_ELEMENT_THEORY":"SGP4","OBJECT_TYPE":"PAYLOAD","PERIAPSIS":"545.855","TLE_LINE2":"2 46776  53.0539 138.6756 0002010  73.5348 286.5861 15.06389125 49285","MEAN_MOTION_DOT":"-0.00000603","LAUNCH_DATE":"2020-10-24","OBJECT_ID":"2020-074AP","ECCENTRICITY":"0.00020100","TLE_LINE1":"1 46776U 20074AP  21254.73196482 -.00000603  00000-0 -21607-4 0  9998","SEMIMAJOR_AXIS":"6925.382","FILE":"3113379"},{"FILE":"3113379","ECCENTRICITY":"0.00085430","TLE_LINE1":"1 46777U 20074AQ  21254.76331699  .00253732  34909-4  79413-3 0  9990","SEMIMAJOR_AXIS":"6677.644","OBJECT_ID":"2020-074AQ","LAUNCH_DATE":"2020-10-24","MEAN_MOTION_DOT":"0.00253732","MEAN_ELEMENT_THEORY":"SGP4","OBJECT_TYPE":"PAYLOAD","TLE_LINE2":"2 46777  53.0478  90.9883 0008543 278.2301  81.7756 15.90991694 49965","PERIAPSIS":"293.804","RA_OF_ASC_NODE":"90.9883","RCS_SIZE":"LARGE","COUNTRY_CODE":"US","DECAY_DATE":null,"BSTAR":"0.00079413000000","INCLINATION":"53.0478","EPHEMERIS_TYPE":"0","PERIOD":"90.510","CLASSIFICATION_TYPE":"U","ELEMENT_SET_NO":"999","REV_AT_EPOCH":"4996","OBJECT_NAME":"STARLINK-1949","ARG_OF_PERICENTER":"278.2301","MEAN_ANOMALY":"81.7756","TIME_SYSTEM":"UTC","GP_ID":"184535531","MEAN_MOTION_DDOT":"0.0000349090000","APOAPSIS":"305.213","SITE":"AFETR","NORAD_CAT_ID":"46777","MEAN_MOTION":"15.90991694","EPOCH":"2021-09-11T18:19:10.587936","REF_FRAME":"TEME","CENTER_NAME":"EARTH"},{"REF_FRAME":"TEME","SITE":"AFETR","APOAPSIS":"548.542","NORAD_CAT_ID":"46779","EPOCH":"2021-09-11T05:11:35.863584","MEAN_MOTION":"15.06402324","CENTER_NAME":"EARTH","ELEMENT_SET_NO":"999","PERIOD":"95.592","CLASSIFICATION_TYPE":"U","MEAN_ANOMALY":"283.6625","GP_ID":"184507673","TIME_SYSTEM":"UTC","MEAN_MOTION_DDOT":"0.0000000000000","REV_AT_EPOCH":"4955","OBJECT_NAME":"STARLINK-1798","ARG_OF_PERICENTER":"76.4578","PERIAPSIS":"545.871","TLE_LINE2":"2 46779  53.0544 115.9840 0001928  76.4578 283.6625 15.06402324 49553","MEAN_ELEMENT_THEORY":"SGP4","OBJECT_TYPE":"PAYLOAD","COUNTRY_CODE":"US","DECAY_DATE":null,"BSTAR":"0.00005392800000","INCLINATION":"53.0544","EPHEMERIS_TYPE":"0","RA_OF_ASC_NODE":"115.9840","RCS_SIZE":"LARGE","FILE":"3113181","SEMIMAJOR_AXIS":"6925.341","TLE_LINE1":"1 46779U 20074AS  21254.21638731  .00000522  00000-0  53928-4 0  9991","ECCENTRICITY":"0.00019280","LAUNCH_DATE":"2020-10-24","OBJECT_ID":"2020-074AS","MEAN_MOTION_DOT":"0.00000522"},{"CENTER_NAME":"EARTH","NORAD_CAT_ID":"46780","MEAN_MOTION":"15.06402693","EPOCH":"2021-09-11T17:39:58.897440","APOAPSIS":"548.610","SITE":"AFETR","REF_FRAME":"TEME","OBJECT_NAME":"STARLINK-1832","ARG_OF_PERICENTER":"75.9142","REV_AT_EPOCH":"4963","MEAN_ANOMALY":"284.2072","GP_ID":"184534530","MEAN_MOTION_DDOT":"0.0000000000000","TIME_SYSTEM":"UTC","PERIOD":"95.592","CLASSIFICATION_TYPE":"U","ELEMENT_SET_NO":"999","RCS_SIZE":"LARGE","RA_OF_ASC_NODE":"113.6516","BSTAR":"0.00009972900000","INCLINATION":"53.0550","EPHEMERIS_TYPE":"0","DECAY_DATE":null,"COUNTRY_CODE":"US","MEAN_ELEMENT_THEORY":"SGP4","OBJECT_TYPE":"PAYLOAD","PERIAPSIS":"545.800","TLE_LINE2":"2 46780  53.0550 113.6516 0002029  75.9142 284.2072 15.06402693 49632","MEAN_MOTION_DOT":"0.00001204","LAUNCH_DATE":"2020-10-24","OBJECT_ID":"2020-074AT","TLE_LINE1":"1 46780U 20074AT  21254.73609835  .00001204  00000-0  99729-4 0  9990","SEMIMAJOR_AXIS":"6925.340","ECCENTRICITY":"0.00020290","FILE":"3113379"}];
